{
  "type": "FeatureCollection",
  "features": [
    {
      "type": "Feature",
      "properties": {
        "norad_id": 40118,
        "name": "GAOFEN-2",
        "group": "resource",
        "lat": -44.805286162013815,
        "lon": 68.45342272139735,
        "alt_km": 636.9743946798944,
        "timestamp": "2025-12-27T04:40:45.157204+00:00",
        "meta_object_name": "GAOFEN-2",
        "meta_object_id": "2014-049A",
        "meta_epoch": "2025-12-26T22:23:46.137696",
        "meta_mean_motion": 14.80632532,
        "meta_eccentricity": 0.00087089,
        "meta_inclination": 98.0361,
        "meta_ra_of_asc_node": 60.1248,
        "meta_arg_of_pericenter": 74.1369,
        "meta_mean_anomaly": 286.0803,
        "meta_ephemeris_type": 0,
        "meta_classification_type": "U",
        "meta_norad_cat_id": 40118,
        "meta_element_set_no": 999,
        "meta_rev_at_epoch": 61374,
        "meta_bstar": 0.00013746238,
        "meta_mean_motion_dot": 1.002e-05,
        "meta_mean_motion_ddot": 0,
        "tle_line1": "1 40118U 14049A   25360.93317289  .00001002  00000+0  13746-3 0  9996",
        "tle_line2": "2 40118  98.0361  60.1248 0008708  74.1369 286.0803 14.80632532613749"
      },
      "geometry": {
        "type": "Point",
        "coordinates": [
          68.45342272139735,
          -44.805286162013815
        ]
      }
    },
    {
      "type": "Feature",
      "properties": {
        "norad_id": 40143,
        "name": "YAOGAN-21",
        "group": "resource",
        "lat": -1.8742108313346082,
        "lon": 44.114471521556816,
        "alt_km": 491.99066498699267,
        "timestamp": "2025-12-27T04:40:45.157219+00:00",
        "meta_object_name": "YAOGAN-21",
        "meta_object_id": "2014-053A",
        "meta_epoch": "2025-12-26T22:23:00.386304",
        "meta_mean_motion": 15.23816238,
        "meta_eccentricity": 0.00083055,
        "meta_inclination": 97.1737,
        "meta_ra_of_asc_node": 43.6274,
        "meta_arg_of_pericenter": 354.2078,
        "meta_mean_anomaly": 5.9062,
        "meta_ephemeris_type": 0,
        "meta_classification_type": "U",
        "meta_norad_cat_id": 40143,
        "meta_element_set_no": 999,
        "meta_rev_at_epoch": 62870,
        "meta_bstar": 0.00019350583,
        "meta_mean_motion_dot": 4.597e-05,
        "meta_mean_motion_ddot": 0,
        "tle_line1": "1 40143U 14053A   25360.93264336  .00004597  00000+0  19351-3 0  9993",
        "tle_line2": "2 40143  97.1737  43.6274 0008305 354.2078   5.9062 15.23816238628703"
      },
      "geometry": {
        "type": "Point",
        "coordinates": [
          44.114471521556816,
          -1.8742108313346082
        ]
      }
    },
    {
      "type": "Feature",
      "properties": {
        "norad_id": 40275,
        "name": "YAOGAN-22",
        "group": "resource",
        "lat": 3.876828843106841,
        "lon": -34.443926229197665,
        "alt_km": 1200.3789794129516,
        "timestamp": "2025-12-27T04:40:45.157231+00:00",
        "meta_object_name": "YAOGAN-22",
        "meta_object_id": "2014-063A",
        "meta_epoch": "2025-12-26T22:18:41.744448",
        "meta_mean_motion": 13.15523322,
        "meta_eccentricity": 0.00061209,
        "meta_inclination": 100.7431,
        "meta_ra_of_asc_node": 144.55,
        "meta_arg_of_pericenter": 214.2749,
        "meta_mean_anomaly": 145.7967,
        "meta_ephemeris_type": 0,
        "meta_classification_type": "U",
        "meta_norad_cat_id": 40275,
        "meta_element_set_no": 999,
        "meta_rev_at_epoch": 53716,
        "meta_bstar": 6.3747025e-05,
        "meta_mean_motion_dot": -2.3e-07,
        "meta_mean_motion_ddot": 0,
        "tle_line1": "1 40275U 14063A   25360.92964982 -.00000023  00000+0  63747-4 0  9993",
        "tle_line2": "2 40275 100.7431 144.5500 0006120 214.2749 145.7967 13.15523322537161"
      },
      "geometry": {
        "type": "Point",
        "coordinates": [
          -34.443926229197665,
          3.876828843106841
        ]
      }
    },
    {
      "type": "Feature",
      "properties": {
        "norad_id": 40298,
        "name": "ASNARO",
        "group": "resource",
        "lat": -12.970732404805107,
        "lon": -104.91880926736968,
        "alt_km": 512.4121356573733,
        "timestamp": "2025-12-27T04:40:45.157241+00:00",
        "meta_object_name": "ASNARO",
        "meta_object_id": "2014-070A",
        "meta_epoch": "2025-12-26T23:05:34.016064",
        "meta_mean_motion": 15.19780996,
        "meta_eccentricity": 0.00056426,
        "meta_inclination": 97.3632,
        "meta_ra_of_asc_node": 76.5609,
        "meta_arg_of_pericenter": 84.0715,
        "meta_mean_anomaly": 276.1163,
        "meta_ephemeris_type": 0,
        "meta_classification_type": "U",
        "meta_norad_cat_id": 40298,
        "meta_element_set_no": 999,
        "meta_rev_at_epoch": 61785,
        "meta_bstar": 0.00024627312,
        "meta_mean_motion_dot": 5.206e-05,
        "meta_mean_motion_ddot": 0,
        "tle_line1": "1 40298U 14070A   25360.96219926  .00005206  00000+0  24627-3 0  9991",
        "tle_line2": "2 40298  97.3632  76.5609 0005642  84.0715 276.1163 15.19780996617858"
      },
      "geometry": {
        "type": "Point",
        "coordinates": [
          -104.91880926736968,
          -12.970732404805107
        ]
      }
    },
    {
      "type": "Feature",
      "properties": {
        "norad_id": 40310,
        "name": "YAOGAN-24",
        "group": "resource",
        "lat": 66.92294438768083,
        "lon": 112.77944590235761,
        "alt_km": 625.2412382548846,
        "timestamp": "2025-12-27T04:40:45.157251+00:00",
        "meta_object_name": "YAOGAN-24",
        "meta_object_id": "2014-072A",
        "meta_epoch": "2025-12-26T23:29:27.350592",
        "meta_mean_motion": 14.76204963,
        "meta_eccentricity": 0.00152021,
        "meta_inclination": 98.1232,
        "meta_ra_of_asc_node": 132.1488,
        "meta_arg_of_pericenter": 95.4728,
        "meta_mean_anomaly": 264.8216,
        "meta_ephemeris_type": 0,
        "meta_classification_type": "U",
        "meta_norad_cat_id": 40310,
        "meta_element_set_no": 999,
        "meta_rev_at_epoch": 59831,
        "meta_bstar": 0.00011537463,
        "meta_mean_motion_dot": 7.47e-06,
        "meta_mean_motion_ddot": 0,
        "tle_line1": "1 40310U 14072A   25360.97878878  .00000747  00000+0  11537-3 0  9997",
        "tle_line2": "2 40310  98.1232 132.1488 0015202  95.4728 264.8216 14.76204963598314"
      },
      "geometry": {
        "type": "Point",
        "coordinates": [
          112.77944590235761,
          66.92294438768083
        ]
      }
    },
    {
      "type": "Feature",
      "properties": {
        "norad_id": 40336,
        "name": "CBERS 4",
        "group": "resource",
        "lat": -35.325071294133544,
        "lon": -127.24342710960626,
        "alt_km": 780.2378507188987,
        "timestamp": "2025-12-27T04:40:45.157261+00:00",
        "meta_object_name": "CBERS 4",
        "meta_object_id": "2014-079A",
        "meta_epoch": "2025-12-26T22:39:33.643296",
        "meta_mean_motion": 14.35522435,
        "meta_eccentricity": 0.00018959,
        "meta_inclination": 98.3285,
        "meta_ra_of_asc_node": 58.4733,
        "meta_arg_of_pericenter": 97.255,
        "meta_mean_anomaly": 262.8851,
        "meta_ephemeris_type": 0,
        "meta_classification_type": "U",
        "meta_norad_cat_id": 40336,
        "meta_element_set_no": 999,
        "meta_rev_at_epoch": 57924,
        "meta_bstar": -5.110602e-06,
        "meta_mean_motion_dot": -5.7e-07,
        "meta_mean_motion_ddot": 0,
        "tle_line1": "1 40336U 14079A   25360.94413939 -.00000057  00000+0 -51106-5 0  9996",
        "tle_line2": "2 40336  98.3285  58.4733 0001895  97.2550 262.8851 14.35522435579247"
      },
      "geometry": {
        "type": "Point",
        "coordinates": [
          -127.24342710960626,
          -35.325071294133544
        ]
      }
    },
    {
      "type": "Feature",
      "properties": {
        "norad_id": 40362,
        "name": "YAOGAN-26",
        "group": "resource",
        "lat": 5.9072595381197,
        "lon": -177.90676392978767,
        "alt_km": 451.6996303852675,
        "timestamp": "2025-12-27T04:40:45.157272+00:00",
        "meta_object_name": "YAOGAN-26",
        "meta_object_id": "2014-088A",
        "meta_epoch": "2025-12-26T23:14:49.993152",
        "meta_mean_motion": 15.39815072,
        "meta_eccentricity": 0.00041106,
        "meta_inclination": 97.0648,
        "meta_ra_of_asc_node": 1.1395,
        "meta_arg_of_pericenter": 344.0064,
        "meta_mean_anomaly": 16.1053,
        "meta_ephemeris_type": 0,
        "meta_classification_type": "U",
        "meta_norad_cat_id": 40362,
        "meta_element_set_no": 999,
        "meta_rev_at_epoch": 61113,
        "meta_bstar": 0.00068857448,
        "meta_mean_motion_dot": 0.00027296,
        "meta_mean_motion_ddot": 0,
        "tle_line1": "1 40362U 14088A   25360.96863418  .00027296  00000+0  68857-3 0  9999",
        "tle_line2": "2 40362  97.0648   1.1395 0004110 344.0064  16.1053 15.39815072611136"
      },
      "geometry": {
        "type": "Point",
        "coordinates": [
          -177.90676392978767,
          5.9072595381197
        ]
      }
    }
  ]
}